GPS BIIR-2  (PRN 13)    
1 24876U 97035A   21262.13453575 -.00000021  00000-0  00000-0 0  9991
2 24876  55.4783 166.2589 0052578  53.8606 306.6645  2.00562426177218
GPS BIIR-4  (PRN 20)    
1 26360U 00025A   21262.82589442  .00000003  00000-0  00000-0 0  9992
2 26360  53.8447  90.0673 0055058 173.3826  53.0881  2.00565355156545
GPS BIIR-8  (PRN 16)    
1 27663U 03005A   21262.78132307 -.00000007  00000-0  00000-0 0  9994
2 27663  55.7052 283.8007 0120741  38.0370 134.8414  2.00553677136587
GPS BIIR-9  (PRN 21)    
1 27704U 03010A   21262.77233556 -.00000094  00000-0  00000-0 0  9999
2 27704  54.9080  34.2853 0242656 297.6152  85.0407  2.00567658135383
GPS BIIR-10 (PRN 22)    
1 28129U 03058A   21262.82330031  .00000006  00000-0  00000-0 0  9997
2 28129  53.6550  92.7106 0069142 307.6404  51.8009  2.00556524130061
GPS BIIR-11 (PRN 19)    
1 28190U 04009A   21262.06644660 -.00000094  00000-0  00000-0 0  9992
2 28190  56.1443 344.7389 0089079 111.8604  65.1385  2.00566484128203
GPS BIIR-13 (PRN 02)    
1 28474U 04045A   21262.19548242 -.00000091  00000-0  00000-0 0  9997
2 28474  55.2404  34.3471 0205124 274.3147 267.6301  2.00553869123695
GPS BIIRM-1 (PRN 17)    
1 28874U 05038A   21262.15606723 -.00000090  00000-0  00000-0 0  9998
2 28874  56.2226 342.1554 0138158 270.8384 354.5243  2.00565043117095
GPS BIIRM-2 (PRN 31)    
1 29486U 06042A   21262.77329172 -.00000028  00000-0  00000-0 0  9993
2 29486  54.7562 220.0456 0101319  15.7805 249.3083  2.00570529109661
GPS BIIRM-3 (PRN 12)    
1 29601U 06052A   21262.35436320 -.00000002  00000-0  00000-0 0  9993
2 29601  55.7044 282.7462 0080157  69.9403 290.9674  2.00563114108679
GPS BIIRM-4 (PRN 15)    
1 32260U 07047A   21262.15858182 -.00000009  00000-0  00000-0 0  9992
2 32260  53.2480 151.7875 0134736  58.4108 302.9648  2.00562499102070
GPS BIIRM-5 (PRN 29)    
1 32384U 07062A   21262.36126777 -.00000091  00000-0  00000-0 0  9998
2 32384  56.3329 342.8746 0017821 139.5036 136.1444  2.00575234100776
GPS BIIRM-6 (PRN 07)    
1 32711U 08012A   21262.57444953 -.00000029  00000-0  00000-0 0  9991
2 32711  54.5107 219.0504 0154578 228.4363 130.1919  2.00555864 99026
GPS BIIRM-8 (PRN 05)    
1 35752U 09043A   21261.56158359  .00000017  00000-0  00000-0 0  9990
2 35752  54.8707  96.4936 0058988  55.6198 305.7382  2.00573512 88610
GPS BIIF-1  (PRN 25)    
1 36585U 10022A   21262.63305007 -.00000005  00000-0  00000-0 0  9995
2 36585  54.9815 278.4426 0096867  54.6540 123.4721  2.00575587 82867
GPS BIIF-2  (PRN 01)    
1 37753U 11036A   21262.52168153 -.00000083  00000-0  00000-0 0  9992
2 37753  56.4716  39.2711 0109014  50.1905 128.6541  2.00563778 74549
GPS BIIF-3  (PRN 24)    
1 38833U 12053A   21261.75794974 -.00000033  00000-0  00000-0 0  9997
2 38833  53.5617 214.4883 0114337  42.5919 318.2511  2.00558506 64690
GPS BIIF-4  (PRN 27)    
1 39166U 13023A   21262.12045696 -.00000086  00000-0  00000-0 0  9995
2 39166  55.8615 338.6347 0093644  35.2442 325.4227  2.00567472 61147
GPS BIIF-5  (PRN 30)    
1 39533U 14008A   21262.11979834 -.00000030  00000-0  00000-0 0  9995
2 39533  53.6625 219.9523 0054560 205.6516 154.0400  2.00566221 54948
GPS BIIF-6  (PRN 06)    
1 39741U 14026A   21261.40075643 -.00000079  00000-0  00000-0 0  9995
2 39741  56.4379  38.8420 0023808 298.8739  60.8856  2.00575218 53788
GPS BIIF-7  (PRN 09)    
1 40105U 14045A   21261.98924037 -.00000015  00000-0  00000-0 0  9995
2 40105  54.6382 157.6443 0019474 105.4524 254.8187  2.00559308 51335
GPS BIIF-8  (PRN 03)    
1 40294U 14068A   21262.35611892  .00000020  00000-0  00000-0 0  9998
2 40294  55.6173  98.6609 0036837  54.1733 306.2470  2.00552467 50475
GPS BIIF-9  (PRN 26)    
1 40534U 15013A   21262.49399972 -.00000006  00000-0  00000-0 0  9998
2 40534  53.8866 275.9152 0060665  14.6771 345.5308  2.00568905 47097
GPS BIIF-10 (PRN 08)    
1 40730U 15033A   21262.65392267 -.00000085  00000-0  00000-0 0  9993
2 40730  55.3665 337.5706 0064834   1.0750 358.9938  2.00566086 45260
GPS BIIF-11 (PRN 10)    
1 41019U 15062A   21262.20578133  .00000020  00000-0  00000-0 0  9993
2 41019  55.6089  98.5042 0070716 213.3441 146.2853  2.00563365 43092
GPS BIIF-12 (PRN 32)    
1 41328U 16007A   21262.29744126 -.00000011  00000-0  00000-0 0  9993
2 41328  54.8630 158.2355 0052539 225.6517 133.9735  2.00558069 41109
GPS BIII-1  (PRN 04)    
1 43873U 18109A   21262.84711161 -.00000007  00000-0  00000-0 0  9994
2 43873  55.0442 160.5754 0014358 193.5937  95.7295  2.00560903 20344
GPS BIII-2  (PRN 18)    
1 44506U 19056A   21262.89575965 -.00000085  00000-0  00000-0 0  9991
2 44506  55.5404  39.8301 0019248 175.9212  49.4701  2.00566987 15340
GPS BIII-3  (PRN 23)    
1 45854U 20041A   21262.87899983  .00000016  00000-0  00000-0 0  9994
2 45854  55.3243  97.0972 0016131 161.5494 354.1420  2.00563798  9318
GPS BIII-4  (PRN 14)    
1 46826U 20078A   21262.22452367 -.00000003  00000-0  00000-0 0  9991
2 46826  54.7561 281.0927 0011140 190.4815 181.7619  2.00566705  6774
